{
  "type": "FeatureCollection",
  "features": [
    {
      "type": "Feature",
      "properties": {
        "norad_id": 41772,
        "name": "SKYSAT-C5",
        "group": "resource",
        "lat": 39.771317509606966,
        "lon": -152.48912426254503,
        "alt_km": 454.85855248199914,
        "timestamp": "2025-12-03T10:52:57.107218+00:00",
        "meta_object_name": "SKYSAT-C5",
        "meta_object_id": "2016-058C",
        "meta_epoch": "2025-12-03T02:27:18.995616",
        "meta_mean_motion": 15.35381437,
        "meta_eccentricity": 0.0002691,
        "meta_inclination": 97.0777,
        "meta_ra_of_asc_node": 21.2377,
        "meta_arg_of_pericenter": 130.7295,
        "meta_mean_anomaly": 229.4184,
        "meta_ephemeris_type": 0,
        "meta_classification_type": "U",
        "meta_norad_cat_id": 41772,
        "meta_element_set_no": 999,
        "meta_rev_at_epoch": 51368,
        "meta_bstar": 0.0018731,
        "meta_mean_motion_dot": 0.00064768,
        "meta_mean_motion_ddot": 0,
        "tle_line1": "1 41772U 16058C   25337.10230319  .00064768  00000+0  18731-2 0  9992",
        "tle_line2": "2 41772  97.0777  21.2377 0002691 130.7295 229.4184 15.35381437513680"
      },
      "geometry": {
        "type": "Point",
        "coordinates": [
          -152.48912426254503,
          39.771317509606966
        ]
      }
    },
    {
      "type": "Feature",
      "properties": {
        "norad_id": 41773,
        "name": "SKYSAT-C2",
        "group": "resource",
        "lat": 82.90816881625572,
        "lon": -94.45208314033098,
        "alt_km": 444.7854020670593,
        "timestamp": "2025-12-03T10:52:57.107229+00:00",
        "meta_object_name": "SKYSAT-C2",
        "meta_object_id": "2016-058D",
        "meta_epoch": "2025-12-03T01:06:49.368672",
        "meta_mean_motion": 15.36929314,
        "meta_eccentricity": 0.0005101,
        "meta_inclination": 97.0371,
        "meta_ra_of_asc_node": 1.9867,
        "meta_arg_of_pericenter": 58.7522,
        "meta_mean_anomaly": 301.4222,
        "meta_ephemeris_type": 0,
        "meta_classification_type": "U",
        "meta_norad_cat_id": 41773,
        "meta_element_set_no": 999,
        "meta_rev_at_epoch": 51487,
        "meta_bstar": 0.00040683,
        "meta_mean_motion_dot": 0.00014631,
        "meta_mean_motion_ddot": 0,
        "tle_line1": "1 41773U 16058D   25337.04640473  .00014631  00000+0  40683-3 0  9998",
        "tle_line2": "2 41773  97.0371   1.9867 0005101  58.7522 301.4222 15.36929314514870"
      },
      "geometry": {
        "type": "Point",
        "coordinates": [
          -94.45208314033098,
          82.90816881625572
        ]
      }
    },
    {
      "type": "Feature",
      "properties": {
        "norad_id": 41774,
        "name": "SKYSAT-C3",
        "group": "resource",
        "lat": 43.95521885894232,
        "lon": 4.8994257776815315,
        "alt_km": 430.4567305752498,
        "timestamp": "2025-12-03T10:52:57.107239+00:00",
        "meta_object_name": "SKYSAT-C3",
        "meta_object_id": "2016-058E",
        "meta_epoch": "2025-12-03T01:21:27.925344",
        "meta_mean_motion": 15.438754,
        "meta_eccentricity": 0.0001372,
        "meta_inclination": 96.9314,
        "meta_ra_of_asc_node": 11.2574,
        "meta_arg_of_pericenter": 99.3363,
        "meta_mean_anomaly": 260.8041,
        "meta_ephemeris_type": 0,
        "meta_classification_type": "U",
        "meta_norad_cat_id": 41774,
        "meta_element_set_no": 999,
        "meta_rev_at_epoch": 51576,
        "meta_bstar": 0.00055763,
        "meta_mean_motion_dot": 0.00025275,
        "meta_mean_motion_ddot": 0,
        "tle_line1": "1 41774U 16058E   25337.05657321  .00025275  00000+0  55763-3 0  9991",
        "tle_line2": "2 41774  96.9314  11.2574 0001372  99.3363 260.8041 15.43875400515765"
      },
      "geometry": {
        "type": "Point",
        "coordinates": [
          4.8994257776815315,
          43.95521885894232
        ]
      }
    },
    {
      "type": "Feature",
      "properties": {
        "norad_id": 41785,
        "name": "ALSAT 1B",
        "group": "resource",
        "lat": 30.992564720911666,
        "lon": 174.355753544352,
        "alt_km": 645.9243321642671,
        "timestamp": "2025-12-03T10:52:57.107250+00:00",
        "meta_object_name": "ALSAT 1B",
        "meta_object_id": "2016-059C",
        "meta_epoch": "2025-12-03T03:41:05.572608",
        "meta_mean_motion": 14.72058829,
        "meta_eccentricity": 0.0010362,
        "meta_inclination": 97.7819,
        "meta_ra_of_asc_node": 349.3569,
        "meta_arg_of_pericenter": 130.9979,
        "meta_mean_anomaly": 229.2126,
        "meta_ephemeris_type": 0,
        "meta_classification_type": "U",
        "meta_norad_cat_id": 41785,
        "meta_element_set_no": 999,
        "meta_rev_at_epoch": 49173,
        "meta_bstar": 0.00010964,
        "meta_mean_motion_dot": 6.42e-06,
        "meta_mean_motion_ddot": 0,
        "tle_line1": "1 41785U 16059C   25337.15353672  .00000642  00000+0  10964-3 0  9992",
        "tle_line2": "2 41785  97.7819 349.3569 0010362 130.9979 229.2126 14.72058829491731"
      },
      "geometry": {
        "type": "Point",
        "coordinates": [
          174.355753544352,
          30.992564720911666
        ]
      }
    },
    {
      "type": "Feature",
      "properties": {
        "norad_id": 41787,
        "name": "PATHFINDER 1",
        "group": "resource",
        "lat": 25.307069879761666,
        "lon": -23.06483506893442,
        "alt_km": 666.562884510653,
        "timestamp": "2025-12-03T10:52:57.107260+00:00",
        "meta_object_name": "PATHFINDER 1",
        "meta_object_id": "2016-059E",
        "meta_epoch": "2025-12-02T23:18:35.078112",
        "meta_mean_motion": 14.6729324,
        "meta_eccentricity": 0.0029946,
        "meta_inclination": 97.8139,
        "meta_ra_of_asc_node": 340.1983,
        "meta_arg_of_pericenter": 110.8576,
        "meta_mean_anomaly": 249.5841,
        "meta_ephemeris_type": 0,
        "meta_classification_type": "U",
        "meta_norad_cat_id": 41787,
        "meta_element_set_no": 999,
        "meta_rev_at_epoch": 49093,
        "meta_bstar": 0.00020168,
        "meta_mean_motion_dot": 1.099e-05,
        "meta_mean_motion_ddot": 0,
        "tle_line1": "1 41787U 16059E   25336.97123933  .00001099  00000+0  20168-3 0  9992",
        "tle_line2": "2 41787  97.8139 340.1983 0029946 110.8576 249.5841 14.67293240490938"
      },
      "geometry": {
        "type": "Point",
        "coordinates": [
          -23.06483506893442,
          25.307069879761666
        ]
      }
    },
    {
      "type": "Feature",
      "properties": {
        "norad_id": 41790,
        "name": "SCATSAT 1",
        "group": "resource",
        "lat": -9.205737541415006,
        "lon": 35.33837480891766,
        "alt_km": 675.0328778768171,
        "timestamp": "2025-12-03T10:52:57.107270+00:00",
        "meta_object_name": "SCATSAT 1",
        "meta_object_id": "2016-059H",
        "meta_epoch": "2025-12-03T02:48:20.618784",
        "meta_mean_motion": 14.78880649,
        "meta_eccentricity": 0.0055783,
        "meta_inclination": 98.148,
        "meta_ra_of_asc_node": 33.6671,
        "meta_arg_of_pericenter": 158.5584,
        "meta_mean_anomaly": 201.7981,
        "meta_ephemeris_type": 0,
        "meta_classification_type": "U",
        "meta_norad_cat_id": 41790,
        "meta_element_set_no": 999,
        "meta_rev_at_epoch": 7260,
        "meta_bstar": 0.00033696,
        "meta_mean_motion_dot": 2.491e-05,
        "meta_mean_motion_ddot": 0,
        "tle_line1": "1 41790U 16059H   25337.11690531  .00002491  00000+0  33696-3 0  9993",
        "tle_line2": "2 41790  98.1480  33.6671 0055783 158.5584 201.7981 14.78880649 72601"
      },
      "geometry": {
        "type": "Point",
        "coordinates": [
          35.33837480891766,
          -9.205737541415006
        ]
      }
    },
    {
      "type": "Feature",
      "properties": {
        "norad_id": 41875,
        "name": "GOKTURK 1A",
        "group": "resource",
        "lat": -72.55487352791418,
        "lon": 22.836169138371673,
        "alt_km": 692.4388943035674,
        "timestamp": "2025-12-03T10:52:57.107281+00:00",
        "meta_object_name": "GOKTURK 1A",
        "meta_object_id": "2016-073A",
        "meta_epoch": "2025-12-03T03:09:20.759328",
        "meta_mean_motion": 14.62760598,
        "meta_eccentricity": 0.0001237,
        "meta_inclination": 98.1431,
        "meta_ra_of_asc_node": 229.6248,
        "meta_arg_of_pericenter": 81.8976,
        "meta_mean_anomaly": 278.2366,
        "meta_ephemeris_type": 0,
        "meta_classification_type": "U",
        "meta_norad_cat_id": 41875,
        "meta_element_set_no": 999,
        "meta_rev_at_epoch": 48016,
        "meta_bstar": 0.00015717,
        "meta_mean_motion_dot": 7.54e-06,
        "meta_mean_motion_ddot": 0,
        "tle_line1": "1 41875U 16073A   25337.13149027  .00000754  00000+0  15717-3 0  9998",
        "tle_line2": "2 41875  98.1431 229.6248 0001237  81.8976 278.2366 14.62760598480169"
      },
      "geometry": {
        "type": "Point",
        "coordinates": [
          22.836169138371673,
          -72.55487352791418
        ]
      }
    }
  ]
}